{"type": "FeatureCollection", "features": [ {"type": "Feature", "properties": {"norad_id": 34955, "name": "COSMOS 2251 DEB", "group": "cosmos-2251-debris", "lat": -25.67584361966787, "lon": 79.33262110108825, "alt_km": 593.3924376494933, "timestamp": "2025-12-10T07:43:55.174785+00:00", "meta": {"OBJECT_NAME": "COSMOS 2251 DEB", "OBJECT_ID": "1993-036AEJ", "EPOCH": "2025-12-09T11:36:19.113120", "MEAN_MOTION": 15.00426203, "ECCENTRICITY": 0.00779782, "INCLINATION": 74.0369, "RA_OF_ASC_NODE": 253.1278, "ARG_OF_PERICENTER": 323.6359, "MEAN_ANOMALY": 35.9543, "EPHEMERIS_TYPE": 0, "CLASSIFICATION_TYPE": "U", "NORAD_CAT_ID": 34955, "ELEMENT_SET_NO": 999, "REV_AT_EPOCH": 89985, "BSTAR": 0.0011514576, "MEAN_MOTION_DOT": 0.00015439, "MEAN_MOTION_DDOT": 0}, "tle": {"line1": "1 34955U 93036AEJ 25343.48355455  .00015439  00000+0  11515-2 0  9999", "line2": "2 34955  74.0369 253.1278 0077978 323.6359  35.9543 15.00426203899855"}}, "geometry": {"type": "Point", "coordinates": [79.33262110108825, -25.67584361966787]}}, {"type": "Feature", "properties": {"norad_id": 34962, "name": "COSMOS 2251 DEB", "group": "cosmos-2251-debris", "lat": 66.79099607322479, "lon": -24.02320085051058, "alt_km": 742.4115930219277, "timestamp": "2025-12-10T07:43:55.174795+00:00", "meta": {"OBJECT_NAME": "COSMOS 2251 DEB", "OBJECT_ID": "1993-036AER", "EPOCH": "2025-12-09T14:38:25.048032", "MEAN_MOTION": 14.46503522, "ECCENTRICITY": 0.0018764, "INCLINATION": 74.0293, "RA_OF_ASC_NODE": 199.2104, "ARG_OF_PERICENTER": 312.5385, "MEAN_ANOMALY": 47.4189, "EPHEMERIS_TYPE": 0, "CLASSIFICATION_TYPE": "U", "NORAD_CAT_ID": 34962, "ELEMENT_SET_NO": 999, "REV_AT_EPOCH": 87533, "BSTAR": 0.00067192, "MEAN_MOTION_DOT": 2.398e-05, "MEAN_MOTION_DDOT": 0}, "tle": {"line1": "1 34962U 93036AER 25343.61001213  .00002398  00000+0  67192-3 0  9995", "line2": "2 34962  74.0293 199.2104 0018764 312.5385  47.4189 14.46503522875331"}}, "geometry": {"type": "Point", "coordinates": [-24.02320085051058, 66.79099607322479]}}, {"type": "Feature", "properties": {"norad_id": 34963, "name": "COSMOS 2251 DEB", "group": "cosmos-2251-debris", "lat": -32.56911070122471, "lon": 36.816012979751626, "alt_km": 723.7176564326783, "timestamp": "2025-12-10T07:43:55.174805+00:00", "meta": {"OBJECT_NAME": "COSMOS 2251 DEB", "OBJECT_ID": "1993-036AES", "EPOCH": "2025-12-08T12:52:00.806016", "MEAN_MOTION": 14.51014391, "ECCENTRICITY": 0.0042597, "INCLINATION": 74.1718, "RA_OF_ASC_NODE": 50.5866, "ARG_OF_PERICENTER": 247.8405, "MEAN_ANOMALY": 111.8233, "EPHEMERIS_TYPE": 0, "CLASSIFICATION_TYPE": "U", "NORAD_CAT_ID": 34963, "ELEMENT_SET_NO": 999, "REV_AT_EPOCH": 86740, "BSTAR": 0.0019565, "MEAN_MOTION_DOT": 7.813e-05, "MEAN_MOTION_DDOT": 0}, "tle": {"line1": "1 34963U 93036AES 25342.53612044  .00007813  00000+0  19565-2 0  9993", "line2": "2 34963  74.1718  50.5866 0042597 247.8405 111.8233 14.51014391867405"}}, "geometry": {"type": "Point", "coordinates": [36.816012979751626, -32.56911070122471]}}, {"type": "Feature", "properties": {"norad_id": 34964, "name": "COSMOS 2251 DEB", "group": "cosmos-2251-debris", "lat": 58.171670860311146, "lon": 19.639326722249123, "alt_km": 1017.2804442029556, "timestamp": "2025-12-10T07:43:55.174815+00:00", "meta": {"OBJECT_NAME": "COSMOS 2251 DEB", "OBJECT_ID": "1993-036AET", "EPOCH": "2025-12-06T09:08:23.227296", "MEAN_MOTION": 14.00561346, "ECCENTRICITY": 0.02131727, "INCLINATION": 73.9719, "RA_OF_ASC_NODE": 358.9078, "ARG_OF_PERICENTER": 218.6047, "MEAN_ANOMALY": 139.9683, "EPHEMERIS_TYPE": 0, "CLASSIFICATION_TYPE": "U", "NORAD_CAT_ID": 34964, "ELEMENT_SET_NO": 999, "REV_AT_EPOCH": 84389, "BSTAR": 0.0026176283, "MEAN_MOTION_DOT": 4.714e-05, "MEAN_MOTION_DDOT": 0}, "tle": {"line1": "1 34964U 93036AET 25340.38082439  .00004714  00000+0  26176-2 0  9997", "line2": "2 34964  73.9719 358.9078 0213172 218.6047 139.9683 14.00561346843899"}}, "geometry": {"type": "Point", "coordinates": [19.639326722249123, 58.171670860311146]}}, {"type": "Feature", "properties": {"norad_id": 34965, "name": "COSMOS 2251 DEB", "group": "cosmos-2251-debris", "lat": 68.28674713892488, "lon": 178.89569650390152, "alt_km": 741.6726073550426, "timestamp": "2025-12-10T07:43:55.174824+00:00", "meta": {"OBJECT_NAME": "COSMOS 2251 DEB", "OBJECT_ID": "1993-036AEU", "EPOCH": "2025-12-09T19:47:02.920704", "MEAN_MOTION": 14.48695623, "ECCENTRICITY": 0.002651, "INCLINATION": 74.0503, "RA_OF_ASC_NODE": 133.9247, "ARG_OF_PERICENTER": 261.6118, "MEAN_ANOMALY": 98.2037, "EPHEMERIS_TYPE": 0, "CLASSIFICATION_TYPE": "U", "NORAD_CAT_ID": 34965, "ELEMENT_SET_NO": 999, "REV_AT_EPOCH": 87071, "BSTAR": 0.0006084, "MEAN_MOTION_DOT": 2.276e-05, "MEAN_MOTION_DDOT": 0}, "tle": {"line1": "1 34965U 93036AEU 25343.82433936  .00002276  00000+0  60840-3 0  9990", "line2": "2 34965  74.0503 133.9247 0026510 261.6118  98.2037 14.48695623870716"}}, "geometry": {"type": "Point", "coordinates": [178.89569650390152, 68.28674713892488]}}, {"type": "Feature", "properties": {"norad_id": 34967, "name": "COSMOS 2251 DEB", "group": "cosmos-2251-debris", "lat": 23.154228105942853, "lon": -94.57917382216822, "alt_km": 718.5458097583632, "timestamp": "2025-12-10T07:43:55.174835+00:00", "meta": {"OBJECT_NAME": "COSMOS 2251 DEB", "OBJECT_ID": "1993-036AEW", "EPOCH": "2025-12-08T12:23:52.050624", "MEAN_MOTION": 14.44233301, "ECCENTRICITY": 0.00378, "INCLINATION": 73.9938, "RA_OF_ASC_NODE": 261.7361, "ARG_OF_PERICENTER": 49.0398, "MEAN_ANOMALY": 311.4019, "EPHEMERIS_TYPE": 0, "CLASSIFICATION_TYPE": "U", "NORAD_CAT_ID": 34967, "ELEMENT_SET_NO": 999, "REV_AT_EPOCH": 64896, "BSTAR": 0.0012271, "MEAN_MOTION_DOT": 4.227e-05, "MEAN_MOTION_DDOT": 0}, "tle": {"line1": "1 34967U 93036AEW 25342.51657466  .00004227  00000+0  12271-2 0  9995", "line2": "2 34967  73.9938 261.7361 0037800  49.0398 311.4019 14.44233301648964"}}, "geometry": {"type": "Point", "coordinates": [-94.57917382216822, 23.154228105942853]}}, {"type": "Feature", "properties": {"norad_id": 34968, "name": "COSMOS 2251 DEB", "group": "cosmos-2251-debris", "lat": 65.14422086421048, "lon": 33.5213108967604, "alt_km": 694.9255143512501, "timestamp": "2025-12-10T07:43:55.174844+00:00", "meta": {"OBJECT_NAME": "COSMOS 2251 DEB", "OBJECT_ID": "1993-036AEX", "EPOCH": "2025-12-09T18:04:38.110368", "MEAN_MOTION": 14.59398553, "ECCENTRICITY": 0.0086476, "INCLINATION": 74.039, "RA_OF_ASC_NODE": 252.7617, "ARG_OF_PERICENTER": 13.8814, "MEAN_ANOMALY": 346.4698, "EPHEMERIS_TYPE": 0, "CLASSIFICATION_TYPE": "U", "NORAD_CAT_ID": 34968, "ELEMENT_SET_NO": 999, "REV_AT_EPOCH": 88434, "BSTAR": 0.00031368, "MEAN_MOTION_DOT": 1.533e-05, "MEAN_MOTION_DDOT": 0}, "tle": {"line1": "1 34968U 93036AEX 25343.75321887  .00001533  00000+0  31368-3 0  9994", "line2": "2 34968  74.0390 252.7617 0086476  13.8814 346.4698 14.59398553884340"}}, "geometry": {"type": "Point", "coordinates": [33.5213108967604, 65.14422086421048]}}, {"type": "Feature", "properties": {"norad_id": 34969, "name": "COSMOS 2251 DEB", "group": "cosmos-2251-debris", "lat": 67.58422877291694, "lon": 71.58348336821737, "alt_km": 774.378234809189, "timestamp": "2025-12-10T07:43:55.174881+00:00", "meta": {"OBJECT_NAME": "COSMOS 2251 DEB", "OBJECT_ID": "1993-036AEY", "EPOCH": "2025-12-09T11:16:06.111552", "MEAN_MOTION": 14.32248944, "ECCENTRICITY": 0.00738203, "INCLINATION": 74.0146, "RA_OF_ASC_NODE": 29.119, "ARG_OF_PERICENTER": 163.1468, "MEAN_ANOMALY": 197.2162, "EPHEMERIS_TYPE": 0, "CLASSIFICATION_TYPE": "U", "NORAD_CAT_ID": 34969, "ELEMENT_SET_NO": 999, "REV_AT_EPOCH": 65090, "BSTAR": 0.00049233942, "MEAN_MOTION_DOT": 1.343e-05, "MEAN_MOTION_DDOT": 0}, "tle": {"line1": "1 34969U 93036AEY 25343.46951518  .00001343  00000+0  49234-3 0  9993", "line2": "2 34969  74.0146  29.1190 0073820 163.1468 197.2162 14.32248944650905"}}, "geometry": {"type": "Point", "coordinates": [71.58348336821737, 67.58422877291694]}}, {"type": "Feature", "properties": {"norad_id": 34971, "name": "COSMOS 2251 DEB", "group": "cosmos-2251-debris", "lat": -23.018155854808523, "lon": 116.61903910435502, "alt_km": 679.1079623250143, "timestamp": "2025-12-10T07:43:55.174892+00:00", "meta": {"OBJECT_NAME": "COSMOS 2251 DEB", "OBJECT_ID": "1993-036AFA", "EPOCH": "2025-12-09T13:13:36.252192", "MEAN_MOTION": 14.55626239, "ECCENTRICITY": 0.0069751, "INCLINATION": 73.9783, "RA_OF_ASC_NODE": 291.0727, "ARG_OF_PERICENTER": 157.5993, "MEAN_ANOMALY": 326.8397, "EPHEMERIS_TYPE": 0, "CLASSIFICATION_TYPE": "U", "NORAD_CAT_ID": 34971, "ELEMENT_SET_NO": 999, "REV_AT_EPOCH": 66126, "BSTAR": 0.0003002, "MEAN_MOTION_DOT": 1.323e-05, "MEAN_MOTION_DDOT": 0}, "tle": {"line1": "1 34971U 93036AFA 25343.55111403  .00001323  00000+0  30020-3 0  9998", "line2": "2 34971  73.9783 291.0727 0069751 157.5993 326.8397 14.55626239661260"}}, "geometry": {"type": "Point", "coordinates": [116.61903910435502, -23.018155854808523]}}, {"type": "Feature", "properties": {"norad_id": 34972, "name": "COSMOS 2251 DEB", "group": "cosmos-2251-debris", "lat": -53.11214427833743, "lon": 32.08444201189127, "alt_km": 658.6501367745859, "timestamp": "2025-12-10T07:43:55.174903+00:00", "meta": {"OBJECT_NAME": "COSMOS 2251 DEB", "OBJECT_ID": "1993-036AFB", "EPOCH": "2025-12-09T04:23:50.530272", "MEAN_MOTION": 14.72780189, "ECCENTRICITY": 0.00340554, "INCLINATION": 73.9883, "RA_OF_ASC_NODE": 56.8045, "ARG_OF_PERICENTER": 216.3223, "MEAN_ANOMALY": 170.8058, "EPHEMERIS_TYPE": 0, "CLASSIFICATION_TYPE": "U", "NORAD_CAT_ID": 34972, "ELEMENT_SET_NO": 999, "REV_AT_EPOCH": 87598, "BSTAR": 0.0017524767, "MEAN_MOTION_DOT": 0.00011289, "MEAN_MOTION_DDOT": 0}, "tle": {"line1": "1 34972U 93036AFB 25343.18322373  .00011289  00000+0  17525-2 0  9994", "line2": "2 34972  73.9883  56.8045 0034055 216.3223 170.8058 14.72780189875982"}}, "geometry": {"type": "Point", "coordinates": [32.08444201189127, -53.11214427833743]}}]}